EUTELSAT QUANTUM        
1 49056U 21069B   25283.50004233  .00000123  00000+0  00000+0 0  9993
2 49056   0.0113 247.4410 0002903 343.5569  16.0913  1.00272934 15422
EUTELSAT KONNECT VHTS   
1 53765U 22110A   25283.36850293  .00000014  00000+0  00000+0 0  9991
2 53765   0.0585  98.0401 0002670  89.6833 326.8449  1.00269427  4326
EUTELSAT HOTBIRD 13F    
1 54048U 22134A   25283.13635913  .00000086  00000+0  00000+0 0  9996
2 54048   0.0534 282.7459 0002048  71.1744  87.1723  1.00271211 10868
EUTELSAT HOTBIRD 13G    
1 54225U 22146A   25283.13635913  .00000086  00000+0  00000+0 0  9996
2 54225   0.0456 232.0290 0002012 311.1252 257.9433  1.00271473  4959
EUTELSAT 10B            
1 54259U 22157A   25283.36294800  .00000066  00000+0  00000+0 0  9994
2 54259   0.0607  95.3489 0001848  42.4733  22.0594  1.00268711 10528
EUTELSAT 36D            
1 59346U 24059A   25283.14095249  .00000154  00000+0  00000+0 0  9999
2 59346   0.0176 218.8938 0000181  31.3772 215.3218  1.00270572  5646
